ONEWEB-0201             
1 48241U 21031AH  21154.58335648 -.00965013  00000-0 -92600-1 0  9995
2 48241  87.5513 299.8224 0013251 110.4235 306.6588 14.95879977  1771
ONEWEB-0207             
1 48242U 21031AJ  21154.58335648 -.01004161  00000-0 -10797+0 0  9990
2 48242  87.5279 299.8372 0011435 126.9997 335.1888 14.91542143  1806
ONEWEB-0208             
1 48243U 21031AK  21154.58335648 -.00957618  00000-0 -10204+0 0  9997
2 48243  87.5157 299.8219 0009172 115.7296 178.4734 14.91791278  1842
ONEWEB-0200             
1 48244U 21031AL  21154.58335648 -.01219086  00000-0 -16487+0 0  9998
2 48244  87.4799 299.8759 0012935 119.5931   9.5327 14.82312151  1764
ONEWEB-0217             
1 48245U 21031AM  21154.58335648 -.01213169  00000-0 -18491+0 0  9992
2 48245  87.4479 299.9154 0009474 132.5381 217.7433 14.77329735  1781
ONEWEB-0211             
1 48767U 21045A   21154.58335648 -.00001445  00000-0 -36325-4 0  9998
2 48767  87.3988 274.5631 0004111 257.6090 162.8576 15.40958723  1797
ONEWEB-0223             
1 48768U 21045B   21154.58335648 -.00001857  00000-0 -44048-4 0  9997
2 48768  87.3955 274.5590 0008684 225.4423 226.5807 15.42483087  1780
ONEWEB-0230             
1 48769U 21045C   21154.58335648 -.00000513  00000-0 -15002-4 0  9994
2 48769  87.3954 274.5704 0004636 236.1893 121.4653 15.37916743  1865
ONEWEB-0237             
1 48770U 21045D   21154.58335648 -.00002648  00000-0 -68718-4 0  9999
2 48770  87.3941 274.5662 0007494 244.9958 145.9619 15.39530594  1793
ONEWEB-0235             
1 48771U 21045E   21154.58335648 -.00000004  00000-0 -13009-5 0  9998
2 48771  87.3972 274.5716 0003746 260.9554 103.8074 15.38261210  1854
ONEWEB-0242             
1 48772U 21045F   21154.58335648 -.00003077  00000-0 -74361-4 0  9999
2 48772  87.3960 274.5586 0007355 252.4249 183.3285 15.41634397  1800
ONEWEB-0241             
1 48773U 21045G   21154.58335648 -.00001729  00000-0 -44071-4 0  9997
2 48773  87.3983 274.5667 0004482 223.3918 184.9884 15.40378029  1813
ONEWEB-0243             
1 48774U 21045H   21154.58335648 -.00002928  00000-0 -76199-4 0  9996
2 48774  87.3993 274.5698 0007537 249.6961 138.3560 15.39390879  1811
ONEWEB-0222             
1 48775U 21045J   21154.58335648 -.00001566  00000-0 -38127-4 0  9993
2 48775  87.3977 274.5621 0007840 247.8347 190.8787 15.41840473  1812
ONEWEB-0244             
1 48776U 21045K   21154.58335648 -.00003242  00000-0 -81201-4 0  9998
2 48776  87.4001 274.5679 0003920 229.8978 182.4491 15.40537698  1797
ONEWEB-0247             
1 48777U 21045L   21154.58335648 -.00001746  00000-0 -44353-4 0  9993
2 48777  87.3955 274.5629 0004173 227.9313 182.5467 15.40474551  1830
ONEWEB-0245             
1 48778U 21045M   21154.58335648 -.00002527  00000-0 -65359-4 0  9991
2 48778  87.3971 274.5676 0007443 241.3025 152.0823 15.39653317  1794
ONEWEB-0229             
1 48779U 21045N   21154.58335648 -.00001459  00000-0 -36945-4 0  9994
2 48779  87.3978 274.5642 0003215 248.7228 166.8002 15.40723172  1784
ONEWEB-0228             
1 48780U 21045P   21154.58335648 -.00002960  00000-0 -75595-4 0  9998
2 48780  87.3975 274.5647 0006402 229.3383 170.8282 15.39977534  1838
ONEWEB-0232             
1 48781U 21045Q   21154.58335648 -.00003389  00000-0 -88829-4 0  9999
2 48781  87.3976 274.5698 0007207 260.7271 121.8013 15.39113302  1793
ONEWEB-0231             
1 48782U 21045R   21154.58335648 -.00001515  00000-0 -37865-4 0  9993
2 48782  87.3969 274.5635 0004591 260.8674 162.1983 15.41085519  1816
ONEWEB-0234             
1 48783U 21045S   21154.58335648 -.00002013  00000-0 -51534-4 0  9997
2 48783  87.3969 274.5682 0005847 226.8530 176.2623 15.40120093  1810
ONEWEB-0238             
1 48784U 21045T   21154.58335648 -.00001450  00000-0 -35676-4 0  9991
2 48784  87.3986 274.5647 0006952 252.7388 180.7992 15.41591852  1802
ONEWEB-0240             
1 48785U 21045U   21154.58335648 -.00001500  00000-0 -37954-4 0  9999
2 48785  87.3967 274.5637 0003504 240.5643 175.1605 15.40729382  1797
ONEWEB-0246             
1 48786U 21045V   21154.58335648 -.00004328  00000-0 -11541-3 0  9994
2 48786  87.3983 274.5707 0004658 268.4911 101.4055 15.38508366  1821
ONEWEB-0210             
1 48787U 21045W   21154.58335648 -.00002227  00000-0 -57364-4 0  9995
2 48787  87.3971 274.5677 0006818 230.9900 166.8434 15.39859287  1803
ONEWEB-0214             
1 48788U 21045X   21154.58335648 -.00004875  00000-0 -13143-3 0  9993
2 48788  87.3964 274.5715 0003995 246.8349 115.6217 15.38140904  1792
ONEWEB-0221             
1 48789U 21045Y   21154.58335648 -.00001882  00000-0 -44485-4 0  9993
2 48789  87.3982 274.5599 0008736 222.4420 231.6469 15.42576747  1804
ONEWEB-0213             
1 48790U 21045Z   21154.58335648 -.00001646  00000-0 -39468-4 0  9998
2 48790  87.3967 274.5603 0008686 232.2574 214.7899 15.42244704  1790
ONEWEB-0212             
1 48791U 21045AA  21154.58335648 -.00001733  00000-0 -41361-4 0  9991
2 48791  87.4004 274.5609 0008686 229.2525 219.9190 15.42342586  1802
ONEWEB-0227             
1 48792U 21045AB  21154.58335648 -.00001798  00000-0 -45983-4 0  9997
2 48792  87.3973 274.5650 0005441 224.4480 180.9235 15.40229877  1796
ONEWEB-0226             
1 48793U 21045AC  21154.58335648 -.00003508  00000-0 -92196-4 0  9997
2 48793  87.3955 274.5665 0006824 262.9610 117.3730 15.39013814  1829
ONEWEB-0224             
1 48794U 21045AD  21154.58335648 -.00005369  00000-0 -14631-3 0  9992
2 48794  87.3985 274.5740 0005019 231.6615 123.4150 15.37781161  1784
ONEWEB-0233             
1 48795U 21045AE  21154.58335648 -.00005101  00000-0 -13806-3 0  9990
2 48795  87.3991 274.5752 0004310 241.0312 118.8054 15.38005407  1781
ONEWEB-0190             
1 48796U 21045AF  21154.58335648 -.00003683  00000-0 -97174-4 0  9995
2 48796  87.3974 274.5724 0006384 266.6126 110.9124 15.38879501  1797
ONEWEB-0236             
1 48797U 21045AG  21154.58335648 -.00004316  00000-0 -11562-3 0  9996
2 48797  87.3949 274.5714 0004158 264.6804 102.4488 15.38370838  1784
ONEWEB-0248             
1 48798U 21045AH  21154.58335648 -.00001415  00000-0 -34991-4 0  9996
2 48798  87.3974 274.5611 0006563 255.2769 175.8766 15.41474339  1796
ONEWEB-0225             
1 48799U 21045AJ  21154.58335648 -.00001328  00000-0 -33597-4 0  9991
2 48799  87.3959 274.5645 0003665 253.8119 164.3476 15.40852031  1799
ONEWEB-0215             
1 48800U 21045AK  21154.58335648 -.00003823  00000-0 -10123-3 0  9995
2 48800  87.3961 274.5689 0006034 269.4810 105.7440 15.38763392  1795
ONEWEB-0216             
1 48801U 21045AL  21154.58335648 -.00004078  00000-0 -10844-3 0  9999
2 48801  87.3960 274.5706 0005094 270.8690 101.2234 15.38610262  1791
ONEWEB-0239             
1 48802U 21045AM  21154.58335648 -.00003065  00000-0 -79964-4 0  9994
2 48802  87.3954 274.5677 0007647 253.0597 132.8599 15.39289344  1830
